BY70-2                  
1 45857U 20042B   24154.54687391  .00112976  00000+0  41481-2 0  9991
2 45857  97.9072 247.1582 0011513 246.0264 113.9768 15.27403561212317
SALSAT                  
1 46495U 20068K   24154.46031195  .00006021  00000+0  34480-3 0  9999
2 46495  97.8148 113.3847 0014169  12.6964 347.4620 15.12933835202081
UVSQ-SAT                
1 47438U 21006AB  24154.16363523  .00051635  00000+0  10376-2 0  9998
2 47438  97.3278 214.4600 0005909 248.6043 111.4576 15.46465282186419
LEDSAT                  
1 49069U 21073D   24154.15616822  .00016343  00000+0  66738-3 0  9997
2 49069  97.4383 225.3925 0018393 339.5904  20.4596 15.24316831154166
XW-3 (CAS-9)            
1 50466U 21131B   24154.53051562  .00000769  00000+0  25999-3 0  9990
2 50466  98.5279 239.6679 0004725 156.5698 203.5705 14.39633231127897
TEVEL-3                 
1 50988U 22002E   24154.49469458  .00139586  00000+0  14904-2 0  9992
2 50988  97.3779 229.6629 0001476 186.7675 173.3564 15.63467441132756
TEVEL-8                 
1 50989U 22002F   24154.47095588  .00132881  00000+0  14311-2 0  9993
2 50989  97.3803 229.7300 0001605 180.0919 180.0340 15.63268097132746
TEVEL-5                 
1 50998U 22002Q   24154.47713876  .00178180  00000+0  14898-2 0  9992
2 50998  97.3763 230.9827 0002304 229.5093 130.5968 15.69460869132842
TEVEL-6                 
1 50999U 22002R   24154.48532422  .00172808  00000+0  14623-2 0  9997
2 50999  97.3754 230.9512 0002171 228.5922 131.5153 15.69184816132848
TEVEL-1                 
1 51013U 22002AF  24154.46033617  .00133110  00000+0  14360-2 0  9996
2 51013  97.3772 229.4840 0001350 192.3356 167.7869 15.63224026132746
TEVEL-7                 
1 51062U 22002CG  24154.45815619  .00135355  00000+0  14460-2 0  9993
2 51062  97.3789 229.6927 0001379 195.2074 164.9143 15.63467809132748
TEVEL-4                 
1 51063U 22002CH  24154.49965306  .00136473  00000+0  14891-2 0  9997
2 51063  97.3792 229.6293 0001165 189.7361 170.3875 15.62920537132743
TEVEL-2                 
1 51069U 22002CP  24154.42824004  .00137488  00000+0  14669-2 0  9995
2 51069  97.3775 229.5616 0001457 188.9913 171.1319 15.63493662132743
GREENCUBE               
1 53106U 22080B   24150.13546523 -.00000003  00000+0  00000+0 0  9990
2 53106  70.1363 199.1393 0007665 111.3674 248.7804  6.42557538 44049
MIET-AIS (RS28S)        
1 53377U 22096H   24154.46400661  .00882532  40135-3  13611-2 0  9995
2 53377  97.3797  75.9395 0009466 162.1623 197.9992 16.04254272102151
KAI-1 (RS26S)           
1 53378U 22096J   24154.53190889  .00097402  00000+0  88878-3 0  9997
2 53378  97.3963  72.6382 0004874 107.9556 252.2236 15.67554458101935
ISOI (RS19S)            
1 53381U 22096M   24154.44615873  .01648554  24205-2  12318-2 0  9998
2 53381  97.3740  77.0434 0010240 178.0071 182.1258 16.15924734102224
SIREN (RS30S)           
1 53384U 22096Q   24154.53843852  .00242888  00000+0  11573-2 0  9996
2 53384  97.3870  74.8191 0007592 135.8048 224.3828 15.82177602102080
CAS-5A (FO-118)         
1 54684U 22167C   24154.54827453  .00025166  00000+0  88423-3 0  9996
2 54684  97.6031 299.0400 0010969 194.3496 165.7434 15.29315384 82067
STRATOSAT-TK 1 (RS52S)  
1 57167U 23091B   24154.53015487  .00012917  00000+0  75477-3 0  9992
2 57167  97.6129 207.6446 0016487 165.1307 195.0411 15.11913707 51349
UMKA 1 (RS40S)          
1 57172U 23091G   24154.52973991  .00005139  00000+0  34274-3 0  9998
2 57172  97.6131 206.7247 0017569 166.3408 193.8299 15.07375504 51289
CUBESX-HSE 3 (RS42S)    
1 57178U 23091N   24154.49838735  .00008550  00000+0  54774-3 0  9993
2 57178  97.6164 207.0818 0018158 162.3596 197.8266 15.08652424 51297
MONITOR-4 (RS57S)       
1 57182U 23091S   24154.48145152  .00007072  00000+0  45929-3 0  9991
2 57182  97.6158 206.8991 0018516 162.8271 197.3588 15.08207749 51284
MONITOR-2 (RS39S)       
1 57184U 23091U   24154.49469829  .00005350  00000+0  35564-3 0  9995
2 57184  97.6159 207.0575 0014995 156.4998 203.6918 15.07510225 51294
SVYATOBOR 1 (RS60S)     
1 57187U 23091X   24154.39919981  .00006157  00000+0  39285-3 0  9996
2 57187  97.6163 207.3434 0014761 153.2148 206.9846 15.08968389 51309
VIZARD-METEO (RS38S)    
1 57189U 23091Z   24154.50060443  .00009025  00000+0  55348-3 0  9996
2 57189  97.6153 207.7903 0013623 151.4953 208.7024 15.10293624 51343
NANOZOND 1 (RS49S)      
1 57190U 23091AA  24154.52621832  .00011650  00000+0  66797-3 0  9992
2 57190  97.6128 208.2565 0012198 154.8529 205.3298 15.12676795 51385
POLYTECH-UNIVERSE 3 (R*)
1 57191U 23091AB  24154.49856620  .00005643  00000+0  37491-3 0  9998
2 57191  97.6122 206.7543 0020027 174.2899 185.8561 15.07433102 51286
UTMN 2 (RS27S)          
1 57203U 23091AP  24154.48688485  .00007917  00000+0  49219-3 0  9990
2 57203  97.6156 207.6524 0013993 151.4496 208.7502 15.09834861 51335
ARCCUBE 1 (RS25S)       
1 57205U 23091AR  24154.51413809  .00013957  00000+0  77681-3 0  9997
2 57205  97.6098 208.3332 0012256 156.8455 203.3331 15.13697649 51395
KUZGTU 1 (RS47S)        
1 57217U 23091AV  24154.50565651  .00007791  00000+0  50134-3 0  9995
2 57217  97.6135 206.9629 0018044 163.5796 196.6021 15.08519944 51291
HADES-D (SO-121)        
1 58567U 23174CY  24153.67786689  .00039851  00000+0  14434-2 0  9993
2 58567  97.4553 229.3761 0011526 274.1956  85.7966 15.28212175 31419
